OPTICUBE 04             
1 41851U 16067D   19087.85495810 -.00000083  00000-0 -19891-5 0  9990
2 41851  97.9123 184.5016 0007819 301.5078  58.5379 14.96772141129670
AEROCUBE 8D             
1 41852U 16067E   19087.45107387 -.00000119  00000-0 -51471-5 0  9996
2 41852  97.9137 183.9190 0008581 302.8636  57.1758 14.96661052129598
AEROCUBE 8C             
1 41853U 16067F   19088.20748532  .00000651  00000-0  62379-4 0  9991
2 41853  97.9137 184.6263 0008568 301.1645  58.8735 14.96626415129705
PROMETHEUS 2-1          
1 41854U 16067G   19087.85164187  .00000071  00000-0  11473-4 0  9995
2 41854  97.9142 184.3664 0009226 301.4804  58.5515 14.96814925129658
PROMETHEUS 2-3          
1 41855U 16067H   19088.18848931  .00000193  00000-0  22200-4 0  9994
2 41855  97.9143 184.7197 0009377 300.2178  59.8114 14.96818328129709
INS-1B                  
1 41954U 17008G   19087.61028060  .00001368  00000-0  59831-4 0  9995
2 41954  97.4084 153.7033 0010908  77.6455 282.6003 15.23720336117306
BGUSAT                  
1 41999U 17008BD  19087.77272346  .00002167  00000-0  87693-4 0  9994
2 41999  97.4145 155.8969 0009976  90.5663 269.6718 15.25739266116808
DIDO-2                  
1 42000U 17008BE  19087.86103855  .00000741  00000-0  33767-4 0  9995
2 42000  97.4097 154.4857 0010288  92.6909 267.5506 15.23733667116745
PEASSS                  
1 42015U 17008BV  19087.74411239  .00001207  00000-0  51737-4 0  9991
2 42015  97.4102 155.2021 0008172  97.7609 262.4556 15.24655227117265
AL-FARABI 1             
1 42016U 17008BW  19087.57870722  .00001513  00000-0  63038-4 0  9996
2 42016  97.4115 155.4879 0008029  98.0870 262.1279 15.25232288117389
NAYIF-1 (EO-88)         
1 42017U 17008BX  19087.69914318  .00001507  00000-0  62769-4 0  9993
2 42017  97.4113 155.6166 0008001  97.7513 262.4634 15.25263163117428
PHOENIX                 
1 42706U 98067LP  19088.02080891  .00149446  19542-4  43649-3 0  9995
2 42706  51.6244 326.4732 0004529 206.6779 153.3995 15.92514972106868
ALTAIR PATHFINDER       
1 42711U 98067LS  19088.21604539  .00033848  00000-0  22531-3 0  9993
2 42711  51.6348 350.6490 0004070 168.9266 191.1823 15.75068733106221
SHARC                   
1 42712U 98067LT  19088.09036584  .00182618  23467-4  56345-3 0  9995
2 42712  51.6283 342.9715 0005196 189.6666 170.4241 15.91374054106552
ZA-AEROSAT              
1 42713U 98067LU  19088.09353751  .00107545  00000-0  36797-3 0  9993
2 42713  51.6313 332.3466 0004271 189.8815 170.2107 15.88887150106454
CSUNSAT1                
1 42715U 98067LW  19088.04571763  .00156867  20647-4  41527-3 0  9996
2 42715  51.6271 328.1994 0005479 202.1312 157.9460 15.94344879106503
NJUST-1                 
1 42722U 98067MB  19088.21710737  .00055842  00000-0  24694-3 0  9993
2 42722  51.6377 337.5994 0004182 200.8440 250.6282 15.83872614105467
LILACSAT-1 (LO-90)      
1 42725U 98067ME  19087.71781172  .15670676  12603-4  45746-3 0  9992
2 42725  51.6064 319.7683 0009359 299.6698  60.5570 16.44549673105565
NSIGHT                  
1 42726U 98067MF  19088.22439190  .00021280  00000-0  19246-3 0  9995
2 42726  51.6384   4.4424 0004597 207.4526 152.6228 15.68032270105027
SNUSAT-1B               
1 42727U 98067MG  19087.97856319  .01892973  11925-4  72764-3 0  9995
2 42727  51.6153 319.6200 0010013 251.7075 246.9465 16.23203064105546
BEEAGLESAT              
1 42736U 98067MR  19088.02953285  .00188512  25344-4  43334-3 0  9999
2 42736  51.6272 326.4875 0006028 222.8643 137.1896 15.96871767105418
UCLSAT                  
1 42765U 17036A   19087.65297628  .00001269  00000-0  57643-4 0  9998
2 42765  97.3612 147.3826 0012401 151.1577 209.0348 15.22526014 97987
LITUANICASAT-2          
1 42768U 17036D   19087.56521016  .00002052  00000-0  91454-4 0  9991
2 42768  97.3644 146.8639 0016432 144.1910 216.0432 15.22437050 97817
AALTO-1                 
1 42775U 17036L   19088.16502351  .00000789  00000-0  38348-4 0  9995
2 42775  97.3598 146.8161 0015155 141.3079 218.9246 15.21190560 97814
URSA MAIOR              
1 42776U 17036M   19087.86947374  .00000855  00000-0  41158-4 0  9997
2 42776  97.3607 146.6491 0014978 142.1958 218.0333 15.21311618 97779
COMPASS 2               
1 42777U 17036N   19088.11617947  .00001592  00000-0  71353-4 0  9996
2 42777  97.3641 147.8498 0013805 142.6157 217.6042 15.22604401 97859
DIAMOND RED             
1 42783U 17036U   19087.40678506  .00000957  00000-0  44853-4 0  9991
2 42783  97.3613 146.8083 0013057 153.0062 207.1856 15.22015444 97731
PEGASUS                 
1 42784U 17036V   19087.72976043  .00001162  00000-0  53398-4 0  9997
2 42784  97.3615 147.3051 0012980 151.7195 208.4749 15.22286649 97799
DIAMOND GREEN           
1 42785U 17036W   19088.12879291  .00000996  00000-0  46526-4 0  9999
2 42785  97.3614 147.5366 0013022 151.1913 209.0045 15.22016192 97835
DIAMOND BLUE            
1 42786U 17036X   19087.47035011  .00000932  00000-0  43757-4 0  9994
2 42786  97.3615 146.8910 0012787 153.4611 206.7282 15.22014294 97817
NUDTSAT                 
1 42787U 17036Y   19087.77678352  .00001605  00000-0  70857-4 0  9998
2 42787  97.3664 147.9007 0010557 147.5718 212.6165 15.23149015 97677
SUCHAI                  
1 42788U 17036Z   19087.36389421  .00001284  00000-0  58026-4 0  9997
2 42788  97.3620 147.1919 0012558 152.0760 208.1153 15.22662176 97826
SKCUBE                  
1 42789U 17036AA  19087.11180430  .00001212  00000-0  55074-4 0  9991
2 42789  97.3617 146.9034 0012389 152.8904 207.2982 15.22578081 97706
VZLUSAT-1               
1 42790U 17036AB  19087.56665638  .00001658  00000-0  73052-4 0  9990
2 42790  97.3629 147.6971 0012069 150.7062 209.4854 15.23154553 97792
ROBUSTA-1B              
1 42792U 17036AD  19087.77436748  .00001280  00000-0  57759-4 0  9990
2 42792  97.3616 147.6792 0012014 151.1669 209.0234 15.22743258 97826
CICERO 6                
1 42793U 17036AE  19088.20884728  .00000846  00000-0  39569-4 0  9991
2 42793  97.3600 147.9540 0011210 150.6844 209.5024 15.22409600 97956
D-SAT                   
1 42794U 17036AF  19087.66826221  .00000320  00000-0  32967-4 0  9997
2 42794  97.5508 135.9309 0127956  55.4895 305.8328 14.91045982 96117
TOKI                    
1 42820U 98067MU  19088.07239870  .00171857  22578-4  44777-3 0  9997
2 42820  51.6272 331.3463 0005199 198.6100 161.4719 15.94609436 98815
MAZAALAI (NUMSAT-1)     
1 42822U 98067MW  19088.04459698  .00142439  18746-4  42264-3 0  9993
2 42822  51.6295 333.4734 0004905 195.6324 164.4532 15.92231149 98765
BRAC ONNESHA            
1 42823U 98067MX  19088.04173747  .00157462  20591-4  43707-3 0  9998
2 42823  51.6271 332.6728 0005864 198.5846 161.4947 15.93448181 98775
NIGERIAEDUSAT-1         
1 42824U 98067MY  19087.90879845  .00131596  17593-4  40068-3 0  9990
2 42824  51.6302 334.8861 0005695 198.3692 161.7110 15.91764657 98729
CORVUS BC2              
1 42846U 17042X   19087.78942791  .00000324  00000-0  37339-4 0  9998
2 42846  97.5749 345.0137 0008980 337.0541  23.0276 14.91938054 92801
CORVUS BC1              
1 42847U 17042Y   19087.68108458  .00000067  00000-0  11903-4 0  9995
2 42847  97.5750 345.0026 0008613 337.2573  22.8264 14.92038102 92788
SILU-1 (SILKROAD 1)     
1 42903U 17021F   19087.87710199  .00361067  69652-4  41066-3 0  9991
2 42903  42.7650  16.0504 0016283 205.7245 215.8501 16.08019127 95039
MIRATA                  
1 43015U 17073C   19087.74943617  .00001475  00000-0  11949-3 0  9991
2 43015  97.7185  12.1638 0257515  64.8962 297.8733 14.78771548 73183
MAKERSAT 0              
1 43016U 17073D   19087.34525218  .00001012  00000-0  83390-4 0  9998
2 43016  97.7218  11.9667 0259459  66.4611 296.3628 14.78585185 73118
ASTERIA                 
1 43020U 98067NH  19088.20578623  .00026274  00000-0  24495-3 0  9996
2 43020  51.6434  14.9678 0002738 150.6005 209.5146 15.67148609 77060
DELLINGR (RBLE)         
1 43021U 98067NJ  19088.03461627  .00010737  00000-0  12802-3 0  9999
2 43021  51.6400  24.2358 0002865 136.8186 223.3033 15.61662551 76924
AEROCUBE 7B (OCSD B)    
1 43042U 17071F   19087.85365833  .00003301  00000-0  89623-4 0  9994
2 43042  51.6379  92.8643 0004001 213.2176 146.8558 15.40591138 73469
AEROCUBE 7C (OCSD C)    
1 43043U 17071G   19087.52976471  .00003197  00000-0  87017-4 0  9993
2 43043  51.6381  94.4644 0004361 216.1510 143.9180 15.40624502 73387
CHEFSAT                 
1 43044U 17071H   19087.58543351  .00006634  00000-0  15821-3 0  9999
2 43044  51.6384  90.4249 0003993 215.8039 144.2680 15.42808310 73449
ASGARDIA 1              
1 43049U 17071N   19087.48848586  .00003680  00000-0  98257-4 0  9994
2 43049  51.6388  94.2097 0001790 235.0626 125.0191 15.40749314 73383
ISARA                   
1 43050U 17071P   19088.22376131  .00005857  00000-0  14271-3 0  9992
2 43050  51.6379  87.9057 0001494 236.5782 123.5061 15.42391275 73526
PROPCUBE 2 (FAUNA)      
1 43052U 17071R   19087.37835083  .00003320  00000-0  88933-4 0  9995
2 43052  51.6388  94.2408 0001709 229.0389 131.0448 15.40984348 73360
CORVUS BC3              
1 43118U 18004H   19087.33476333  .00000755  00000-0  35444-4 0  9998
2 43118  97.4949 154.9343 0010719 171.8530 188.2882 15.22696832 66949
MICROMAS-2A             
1 43131U 18004W   19088.19324720  .00001847  00000-0  79697-4 0  9991
2 43131  97.4969 156.3050 0009826 170.3245 189.8183 15.23790713 67105
CICERO 7                
1 43143U 18004AJ  19088.22523137  .00001404  00000-0  60965-4 0  9998
2 43143  97.4957 156.5446 0007674 176.9953 183.1331 15.23983756 67128
GOMX-4B                 
1 43196U 18015E   19087.55937185  .00000327  00000-0  16468-4 0  9997
2 43196  97.3788 216.3339 0017594 234.4380 125.5222 15.23843031 63833
GOMX-4A                 
1 43197U 18015F   19088.08125027  .00000308  00000-0  15655-4 0  9997
2 43197  97.3783 216.8635 0017622 232.2225 182.2333 15.23941230 63922
